[{"OBJECT_NAME":"STARLINK-6246","OBJECT_ID":"2023-088AG","EPOCH":"2025-10-28T03:02:51.058176","MEAN_MOTION":15.02538164,"ECCENTRICITY":0.00014788,"INCLINATION":43.0034,"RA_OF_ASC_NODE":95.2168,"ARG_OF_PERICENTER":262.4727,"MEAN_ANOMALY":97.5948,"EPHEMERIS_TYPE":0,"CLASSIFICATION_TYPE":"U","NORAD_CAT_ID":57078,"ELEMENT_SET_NO":999,"REV_AT_EPOCH":13040,"BSTAR":6.6674306e-5,"MEAN_MOTION_DOT":6.97e-6,"MEAN_MOTION_DDOT":0},{"OBJECT_NAME":"STARLINK-6245","OBJECT_ID":"2023-088AH","EPOCH":"2025-10-27T18:35:26.275488","MEAN_MOTION":15.02540418,"ECCENTRICITY":0.00014824,"INCLINATION":43.0029,"RA_OF_ASC_NODE":96.8741,"ARG_OF_PERICENTER":270.4395,"MEAN_ANOMALY":89.6278,"EPHEMERIS_TYPE":0,"CLASSIFICATION_TYPE":"U","NORAD_CAT_ID":57079,"ELEMENT_SET_NO":999,"REV_AT_EPOCH":13052,"BSTAR":-9.128133e-6,"MEAN_MOTION_DOT":-3.27e-6,"MEAN_MOTION_DDOT":0},{"OBJECT_NAME":"STARLINK-6243","OBJECT_ID":"2023-088AJ","EPOCH":"2025-10-28T10:53:28.137696","MEAN_MOTION":15.02550288,"ECCENTRICITY":0.0002568,"INCLINATION":43.0084,"RA_OF_ASC_NODE":93.38,"ARG_OF_PERICENTER":266.1602,"MEAN_ANOMALY":93.8947,"EPHEMERIS_TYPE":0,"CLASSIFICATION_TYPE":"U","NORAD_CAT_ID":57080,"ELEMENT_SET_NO":999,"REV_AT_EPOCH":13045,"BSTAR":0.00031141869,"MEAN_MOTION_DOT":4.007e-5,"MEAN_MOTION_DDOT":0},{"OBJECT_NAME":"STARLINK-6184","OBJECT_ID":"2023-088AK","EPOCH":"2025-10-27T18:30:38.476224","MEAN_MOTION":15.02538781,"ECCENTRICITY":0.00011048,"INCLINATION":43.0022,"RA_OF_ASC_NODE":96.8524,"ARG_OF_PERICENTER":273.1959,"MEAN_ANOMALY":86.8757,"EPHEMERIS_TYPE":0,"CLASSIFICATION_TYPE":"U","NORAD_CAT_ID":57081,"ELEMENT_SET_NO":999,"REV_AT_EPOCH":13052,"BSTAR":3.9882181e-5,"MEAN_MOTION_DOT":3.35e-6,"MEAN_MOTION_DDOT":0},{"OBJECT_NAME":"STARLINK-6248","OBJECT_ID":"2023-088AL","EPOCH":"2025-10-27T20:15:57.937248","MEAN_MOTION":15.02536421,"ECCENTRICITY":0.0001266,"INCLINATION":43.0039,"RA_OF_ASC_NODE":96.542,"ARG_OF_PERICENTER":270.0833,"MEAN_ANOMALY":89.9864,"EPHEMERIS_TYPE":0,"CLASSIFICATION_TYPE":"U","NORAD_CAT_ID":57082,"ELEMENT_SET_NO":999,"REV_AT_EPOCH":13053,"BSTAR":9.7112865e-5,"MEAN_MOTION_DOT":1.108e-5,"MEAN_MOTION_DDOT":0},{"OBJECT_NAME":"STARLINK-6253","OBJECT_ID":"2023-088AM","EPOCH":"2025-10-28T11:52:27.778944","MEAN_MOTION":15.02537552,"ECCENTRICITY":0.00012549,"INCLINATION":43.0032,"RA_OF_ASC_NODE":92.8169,"ARG_OF_PERICENTER":269.2681,"MEAN_ANOMALY":90.8017,"EPHEMERIS_TYPE":0,"CLASSIFICATION_TYPE":"U","NORAD_CAT_ID":57083,"ELEMENT_SET_NO":999,"REV_AT_EPOCH":13063,"BSTAR":3.8640658e-5,"MEAN_MOTION_DOT":3.18e-6,"MEAN_MOTION_DDOT":0},{"OBJECT_NAME":"STARLINK-6240","OBJECT_ID":"2023-088AN","EPOCH":"2025-10-28T12:05:15.098208","MEAN_MOTION":15.02538423,"ECCENTRICITY":0.00012973,"INCLINATION":43.0045,"RA_OF_ASC_NODE":92.8847,"ARG_OF_PERICENTER":262.5949,"MEAN_ANOMALY":97.4746,"EPHEMERIS_TYPE":0,"CLASSIFICATION_TYPE":"U","NORAD_CAT_ID":57084,"ELEMENT_SET_NO":999,"REV_AT_EPOCH":13063,"BSTAR":1.5761015e-5,"MEAN_MOTION_DOT":9.0e-8,"MEAN_MOTION_DDOT":0},{"OBJECT_NAME":"STARLINK-6232","OBJECT_ID":"2023-088AP","EPOCH":"2025-10-28T03:47:26.685600","MEAN_MOTION":15.02547022,"ECCENTRICITY":0.00013224,"INCLINATION":43.0035,"RA_OF_ASC_NODE":94.5905,"ARG_OF_PERICENTER":265.3916,"MEAN_ANOMALY":94.6776,"EPHEMERIS_TYPE":0,"CLASSIFICATION_TYPE":"U","NORAD_CAT_ID":57085,"ELEMENT_SET_NO":999,"REV_AT_EPOCH":13058,"BSTAR":7.6174912e-5,"MEAN_MOTION_DOT":8.26e-6,"MEAN_MOTION_DDOT":0},{"OBJECT_NAME":"STARLINK-6247","OBJECT_ID":"2023-088AQ","EPOCH":"2025-10-27T20:03:10.857312","MEAN_MOTION":15.02535738,"ECCENTRICITY":0.00012233,"INCLINATION":43.0029,"RA_OF_ASC_NODE":96.4732,"ARG_OF_PERICENTER":267.6596,"MEAN_ANOMALY":92.4106,"EPHEMERIS_TYPE":0,"CLASSIFICATION_TYPE":"U","NORAD_CAT_ID":57086,"ELEMENT_SET_NO":999,"REV_AT_EPOCH":13053,"BSTAR":2.6572885e-5,"MEAN_MOTION_DOT":1.55e-6,"MEAN_MOTION_DDOT":0},{"OBJECT_NAME":"STARLINK-6251","OBJECT_ID":"2023-088AR","EPOCH":"2025-10-28T03:42:39.492000","MEAN_MOTION":15.02538093,"ECCENTRICITY":0.0001126,"INCLINATION":43.0025,"RA_OF_ASC_NODE":94.5672,"ARG_OF_PERICENTER":273.2117,"MEAN_ANOMALY":86.8596,"EPHEMERIS_TYPE":0,"CLASSIFICATION_TYPE":"U","NORAD_CAT_ID":57087,"ELEMENT_SET_NO":999,"REV_AT_EPOCH":13058,"BSTAR":0.00022282977,"MEAN_MOTION_DOT":2.808e-5,"MEAN_MOTION_DDOT":0},{"OBJECT_NAME":"STARLINK-6257","OBJECT_ID":"2023-088AS","EPOCH":"2025-10-28T03:57:01.417536","MEAN_MOTION":15.02533896,"ECCENTRICITY":0.00011398,"INCLINATION":43.0033,"RA_OF_ASC_NODE":94.6417,"ARG_OF_PERICENTER":268.9964,"MEAN_ANOMALY":91.0747,"EPHEMERIS_TYPE":0,"CLASSIFICATION_TYPE":"U","NORAD_CAT_ID":57088,"ELEMENT_SET_NO":999,"REV_AT_EPOCH":13058,"BSTAR":2.483429e-5,"MEAN_MOTION_DOT":1.32e-6,"MEAN_MOTION_DDOT":0},{"OBJECT_NAME":"STARLINK-6259","OBJECT_ID":"2023-088AT","EPOCH":"2025-10-28T03:28:15.488544","MEAN_MOTION":15.02534797,"ECCENTRICITY":0.00013827,"INCLINATION":43.0025,"RA_OF_ASC_NODE":94.4878,"ARG_OF_PERICENTER":272.1973,"MEAN_ANOMALY":87.8711,"EPHEMERIS_TYPE":0,"CLASSIFICATION_TYPE":"U","NORAD_CAT_ID":57089,"ELEMENT_SET_NO":999,"REV_AT_EPOCH":13058,"BSTAR":-3.9005881e-5,"MEAN_MOTION_DOT":-7.3e-6,"MEAN_MOTION_DDOT":0},{"OBJECT_NAME":"STARLINK-6254","OBJECT_ID":"2023-088AU","EPOCH":"2025-10-28T03:41:02.479488","MEAN_MOTION":15.02535459,"ECCENTRICITY":0.00012706,"INCLINATION":43.0035,"RA_OF_ASC_NODE":94.5595,"ARG_OF_PERICENTER":267.3151,"MEAN_ANOMALY":92.7546,"EPHEMERIS_TYPE":0,"CLASSIFICATION_TYPE":"U","NORAD_CAT_ID":57090,"ELEMENT_SET_NO":999,"REV_AT_EPOCH":13058,"BSTAR":6.4542374e-5,"MEAN_MOTION_DOT":6.68e-6,"MEAN_MOTION_DDOT":0},{"OBJECT_NAME":"STARLINK-6262","OBJECT_ID":"2023-088AV","EPOCH":"2025-10-27T17:58:40.419552","MEAN_MOTION":15.02541822,"ECCENTRICITY":0.00011915,"INCLINATION":43.0036,"RA_OF_ASC_NODE":96.6814,"ARG_OF_PERICENTER":275.6335,"MEAN_ANOMALY":84.4371,"EPHEMERIS_TYPE":0,"CLASSIFICATION_TYPE":"U","NORAD_CAT_ID":57091,"ELEMENT_SET_NO":999,"REV_AT_EPOCH":13052,"BSTAR":0.00011193081,"MEAN_MOTION_DOT":1.309e-5,"MEAN_MOTION_DDOT":0},{"OBJECT_NAME":"STARLINK-6225","OBJECT_ID":"2023-088AW","EPOCH":"2025-10-28T03:36:13.709088","MEAN_MOTION":15.02539951,"ECCENTRICITY":0.00019263,"INCLINATION":43.0046,"RA_OF_ASC_NODE":94.5305,"ARG_OF_PERICENTER":269.607,"MEAN_ANOMALY":90.4552,"EPHEMERIS_TYPE":0,"CLASSIFICATION_TYPE":"U","NORAD_CAT_ID":57092,"ELEMENT_SET_NO":999,"REV_AT_EPOCH":13058,"BSTAR":3.3645411e-5,"MEAN_MOTION_DOT":2.51e-6,"MEAN_MOTION_DDOT":0},{"OBJECT_NAME":"STARLINK-6229","OBJECT_ID":"2023-088AX","EPOCH":"2025-10-28T03:23:27.522528","MEAN_MOTION":15.02553417,"ECCENTRICITY":0.00014644,"INCLINATION":43.0028,"RA_OF_ASC_NODE":94.4627,"ARG_OF_PERICENTER":272.2171,"MEAN_ANOMALY":87.8504,"EPHEMERIS_TYPE":0,"CLASSIFICATION_TYPE":"U","NORAD_CAT_ID":57093,"ELEMENT_SET_NO":999,"REV_AT_EPOCH":13058,"BSTAR":-0.00032411199,"MEAN_MOTION_DOT":-4.581e-5,"MEAN_MOTION_DDOT":0}]
