57078,STARLINK-6246,2023,95.84,-1.0,+,43.0,Active,0,LEO,USA,USA,Unknown,Unknown,Unknown,1 57078U 23088AG  25301.12697984  .00000697  00000+0  66674-4 0  9999,2 57078  43.0034  95.2168 0001478 262.4727  97.5948 15.02538164130409,15.02538164,0.0001478,LEO
57079,STARLINK-6245,2023,95.84,-1.0,+,43.0,Active,0,LEO,USA,USA,Unknown,Unknown,Unknown,1 57079U 23088AH  25300.77460967 -.00000327  00000+0 -91281-5 0  9994,2 57079  43.0029  96.8741 0001482 270.4395  89.6278 15.02540418130529,15.02540418,0.0001482,LEO
57080,STARLINK-6243,2023,95.84,-1.0,+,43.0,Active,0,LEO,USA,USA,Unknown,Unknown,Unknown,1 57080U 23088AJ  25301.45379789  .00004007  00000+0  31142-3 0  9998,2 57080  43.0084  93.3800 0002568 266.1602  93.8947 15.02550288130457,15.02550288,0.0002568,LEO
57081,STARLINK-6184,2023,95.84,-1.0,+,43.0,Active,0,LEO,USA,USA,Unknown,Unknown,Unknown,1 57081U 23088AK  25300.77127866  .00000335  00000+0  39882-4 0  9990,2 57081  43.0022  96.8524 0001104 273.1959  86.8757 15.02538781130522,15.02538781,0.0001104,LEO
57082,STARLINK-6248,2023,95.84,-1.0,+,43.0,Active,0,LEO,USA,USA,Unknown,Unknown,Unknown,1 57082U 23088AL  25300.84442057  .00001108  00000+0  97113-4 0  9991,2 57082  43.0039  96.5420 0001266 270.0833  89.9864 15.02536421130532,15.02536421,0.0001266,LEO
57083,STARLINK-6253,2023,95.84,-1.0,+,43.0,Active,0,LEO,USA,USA,Unknown,Unknown,Unknown,1 57083U 23088AM  25301.49476596  .00000318  00000+0  38641-4 0  9992,2 57083  43.0032  92.8169 0001254 269.2681  90.8017 15.02537552130631,15.02537552,0.0001254,LEO
57084,STARLINK-6240,2023,95.84,-1.0,+,43.0,Active,0,LEO,USA,USA,Unknown,Unknown,Unknown,1 57084U 23088AN  25301.50364697  .00000009  00000+0  15761-4 0  9998,2 57084  43.0045  92.8847 0001297 262.5949  97.4746 15.02538423130639,15.02538423,0.0001297,LEO
57085,STARLINK-6232,2023,95.84,-1.0,+,43.0,Active,0,LEO,USA,USA,Unknown,Unknown,Unknown,1 57085U 23088AP  25301.15794775  .00000826  00000+0  76175-4 0  9997,2 57085  43.0035  94.5905 0001322 265.3916  94.6776 15.02547022130588,15.02547022,0.0001322,LEO
57086,STARLINK-6247,2023,95.84,-1.0,+,43.0,Active,0,LEO,USA,USA,Unknown,Unknown,Unknown,1 57086U 23088AQ  25300.83554233  .00000155  00000+0  26573-4 0  9997,2 57086  43.0029  96.4732 0001223 267.6596  92.4106 15.02535738130539,15.02535738,0.0001223,LEO
57087,STARLINK-6251,2023,95.84,-1.0,+,43.0,Active,0,LEO,USA,USA,Unknown,Unknown,Unknown,1 57087U 23088AR  25301.15462375  .00002808  00000+0  22283-3 0  9999,2 57087  43.0025  94.5672 0001126 273.2117  86.8596 15.02538093130584,15.02538093,0.0001126,LEO
57088,STARLINK-6257,2023,95.84,-1.0,+,43.0,Active,0,LEO,USA,USA,Unknown,Unknown,Unknown,1 57088U 23088AS  25301.16459974  .00000132  00000+0  24834-4 0  9995,2 57088  43.0033  94.6417 0001139 268.9964  91.0747 15.02533896130589,15.02533896,0.0001139,LEO
57089,STARLINK-6259,2023,95.84,-1.0,+,43.0,Active,0,LEO,USA,USA,Unknown,Unknown,Unknown,1 57089U 23088AT  25301.14462371 -.00000730  00000+0 -39006-4 0  9992,2 57089  43.0025  94.4878 0001382 272.1973  87.8711 15.02534797130582,15.02534797,0.0001382,LEO
57090,STARLINK-6254,2023,95.84,-1.0,+,43.0,Active,0,LEO,USA,USA,Unknown,Unknown,Unknown,1 57090U 23088AU  25301.15350092  .00000668  00000+0  64542-4 0  9992,2 57090  43.0035  94.5595 0001270 267.3151  92.7546 15.02535459130589,15.02535459,0.000127,LEO
57091,STARLINK-6262,2023,95.84,-1.0,+,43.0,Active,0,LEO,USA,USA,Unknown,Unknown,Unknown,1 57091U 23088AV  25300.74907893  .00001309  00000+0  11193-3 0  9990,2 57091  43.0036  96.6814 0001191 275.6335  84.4371 15.02541822130525,15.02541822,0.0001191,LEO
57092,STARLINK-6225,2023,95.84,-1.0,+,43.0,Active,0,LEO,USA,USA,Unknown,Unknown,Unknown,1 57092U 23088AW  25301.15015867  .00000251  00000+0  33645-4 0  9990,2 57092  43.0046  94.5305 0001926 269.6070  90.4552 15.02539951130588,15.02539951,0.0001926,LEO
57093,STARLINK-6229,2023,95.84,-1.0,+,43.0,Active,0,LEO,USA,USA,Unknown,Unknown,Unknown,1 57093U 23088AX  25301.14129077 -.00004581  00000+0 -32411-3 0  9990,2 57093  43.0028  94.4627 0001464 272.2171  87.8504 15.02553417130584,15.02553417,0.0001464,LEO
